{
"type": "FeatureCollection",
"name": "parcels",
"crs": { "type": "name", "properties": { "name": "urn:ogc:def:crs:OGC:1.3:CRS84" } },
"features": [
{"type":"Feature","properties":{"fid":1,"parcel_id":"P001","ulpin_synth":"ULPIN-SYN-P001","survey_number":"SV-402","khasra_number":"741/3","village":"Gopalpur","tehsil":"Devgarh","district":"Surajpur","area_hectares":1.85,"source":"Handwritten + Mutation + Registration"},"geometry":{"type":"Polygon","coordinates":[[[-1.064449064449064,-0.453222453222453],[-1.064449064449064,0.162162162162162],[-0.133056133056133,0.162162162162162],[-0.133056133056133,-0.453222453222453],[-1.064449064449064,-0.453222453222453]]]}},
{"type":"Feature","properties":{"fid":2,"parcel_id":"P002","ulpin_synth":"ULPIN-SYN-P002","survey_number":"205/8","khasra_number":"589/2","village":"Chandanpur","tehsil":"Anandnagar","district":"Rampur","area_hectares":1.25,"source":"Handwritten + ROR + Registration"},"geometry":{"type":"Polygon","coordinates":[[[-0.133056133056133,-0.453222453222453],[-0.133056133056133,0.158004158004158],[0.798336798336799,0.158004158004158],[0.798336798336799,-0.453222453222453],[-0.133056133056133,-0.453222453222453]]]}},
{"type":"Feature","properties":{"fid":3,"parcel_id":"P003","ulpin_synth":"ULPIN-SYN-P003","survey_number":"","khasra_number":"1042/1","village":"Sundarpur","tehsil":"Gopalpur","district":"Vijaynagar","area_hectares":2.41,"source":"ROR"},"geometry":{"type":"Polygon","coordinates":[[[0.798336798336799,-0.453222453222453],[0.798336798336799,0.153846153846154],[1.696465696465697,0.153846153846154],[1.696465696465697,-0.453222453222453],[0.798336798336799,-0.453222453222453]]]}}
]
}
